<?xml version='1.0' encoding='utf-8'?>
<gpx version="1.1" creator="RouteFinding" xmlns="http://www.topografix.com/GPX/1/1"><trk><trkseg><trkpt lat="37.5299823" lon="126.710553"><ele>57.599998474121094</ele><time>2025-07-16T01:43:23.334000Z</time></trkpt><trkpt lat="37.5299823" lon="126.710553"><ele>57.599998474121094</ele><time>2025-07-16T01:43:23.396000Z</time></trkpt><trkpt lat="37.5299917" lon="126.7106113"><ele>57.39999771118164</ele><time>2025-07-16T01:43:33.816000Z</time></trkpt><trkpt lat="37.530031" lon="126.710648"><ele>57.39999771118164</ele><time>2025-07-16T01:43:36.710000Z</time></trkpt><trkpt lat="37.5300796" lon="126.7106561"><ele>57.39999771118164</ele><time>2025-07-16T01:43:40.032000Z</time></trkpt><trkpt lat="37.5300962" lon="126.710601"><ele>57.39999771118164</ele><time>2025-07-16T01:43:46.347000Z</time></trkpt><trkpt lat="37.5300917" lon="126.7105442"><ele>57.39999771118164</ele><time>2025-07-16T01:43:50.992000Z</time></trkpt><trkpt lat="37.5300877" lon="126.7104807"><ele>57.39999771118164</ele><time>2025-07-16T01:43:55.995000Z</time></trkpt><trkpt lat="37.5301086" lon="126.7105425"><ele>57.39999771118164</ele><time>2025-07-16T01:44:08.151000Z</time></trkpt><trkpt lat="37.5301065" lon="126.710606"><ele>57.39999771118164</ele><time>2025-07-16T01:44:12.381000Z</time></trkpt><trkpt lat="37.5301003" lon="126.710679"><ele>57.39999771118164</ele><time>2025-07-16T01:44:15.206000Z</time></trkpt><trkpt lat="37.530084" lon="126.7107401"><ele>57.39999771118164</ele><time>2025-07-16T01:44:18.382000Z</time></trkpt><trkpt lat="37.5300724" lon="126.7108017"><ele>57.39999771118164</ele><time>2025-07-16T01:44:21.988000Z</time></trkpt><trkpt lat="37.5300597" lon="126.7108561"><ele>57.39999771118164</ele><time>2025-07-16T01:44:25.337000Z</time></trkpt><trkpt lat="37.5300664" lon="126.7109136"><ele>57.39999771118164</ele><time>2025-07-16T01:44:27.839000Z</time></trkpt><trkpt lat="37.5300751" lon="126.7109732"><ele>57.39999771118164</ele><time>2025-07-16T01:44:30.909000Z</time></trkpt><trkpt lat="37.5300899" lon="126.7110375"><ele>57.39999771118164</ele><time>2025-07-16T01:44:34.313000Z</time></trkpt><trkpt lat="37.5300845" lon="126.7110985"><ele>57.39999771118164</ele><time>2025-07-16T01:44:37.995000Z</time></trkpt><trkpt lat="37.5300602" lon="126.7111467"><ele>57.39999771118164</ele><time>2025-07-16T01:44:41.487000Z</time></trkpt><trkpt lat="37.5300229" lon="126.7111829"><ele>57.39999771118164</ele><time>2025-07-16T01:44:49.379000Z</time></trkpt><trkpt lat="37.5299767" lon="126.7111811"><ele>56.099998474121094</ele><time>2025-07-16T01:44:54.815000Z</time></trkpt><trkpt lat="37.5299299" lon="126.7111901"><ele>56.099998474121094</ele><time>2025-07-16T01:44:59.384000Z</time></trkpt><trkpt lat="37.5298842" lon="126.7111862"><ele>56.099998474121094</ele><time>2025-07-16T01:45:03.402000Z</time></trkpt><trkpt lat="37.529838" lon="126.7111748"><ele>54.89999771118164</ele><time>2025-07-16T01:45:07.385000Z</time></trkpt><trkpt lat="37.5297955" lon="126.7111547"><ele>54.5</ele><time>2025-07-16T01:45:12.384000Z</time></trkpt><trkpt lat="37.5297645" lon="126.7111095"><ele>54.89999771118164</ele><time>2025-07-16T01:45:21.226000Z</time></trkpt><trkpt lat="37.529731" lon="126.7111488"><ele>54.89999771118164</ele><time>2025-07-16T01:45:29.398000Z</time></trkpt><trkpt lat="37.5296835" lon="126.711161"><ele>54.89999771118164</ele><time>2025-07-16T01:45:35.373000Z</time></trkpt><trkpt lat="37.5296538" lon="126.7111163"><ele>55</ele><time>2025-07-16T01:45:39.230000Z</time></trkpt><trkpt lat="37.5295966" lon="126.7110988"><ele>54.89999771118164</ele><time>2025-07-16T01:45:42.010000Z</time></trkpt><trkpt lat="37.529571" lon="126.711052"><ele>54.89999771118164</ele><time>2025-07-16T01:45:45.387000Z</time></trkpt><trkpt lat="37.5295664" lon="126.7109956"><ele>55</ele><time>2025-07-16T01:45:56.398000Z</time></trkpt><trkpt lat="37.5296129" lon="126.7109686"><ele>54.70000076293945</ele><time>2025-07-16T01:46:17.925000Z</time></trkpt><trkpt lat="37.5296521" lon="126.7109318"><ele>53.20000076293945</ele><time>2025-07-16T01:46:21.320000Z</time></trkpt><trkpt lat="37.5296789" lon="126.7108635"><ele>54.89999771118164</ele><time>2025-07-16T01:46:30.473000Z</time></trkpt><trkpt lat="37.5297427" lon="126.7108449"><ele>53.20000076293945</ele><time>2025-07-16T01:46:33.700000Z</time></trkpt><trkpt lat="37.5297909" lon="126.7108369"><ele>53.20000076293945</ele><time>2025-07-16T01:46:36.830000Z</time></trkpt><trkpt lat="37.5298198" lon="126.7108885"><ele>53.20000076293945</ele><time>2025-07-16T01:46:39.996000Z</time></trkpt><trkpt lat="37.5298506" lon="126.7109504"><ele>53.20000076293945</ele><time>2025-07-16T01:46:44.391000Z</time></trkpt></trkseg></trk></gpx>